NORAD_CAT_ID,OBJECT_NAME,OBJECT_TYPE,EPOCH,MEAN_MOTION,ECCENTRICITY,INCLINATION,RA_OF_ASC_NODE,ARG_OF_PERICENTER,MEAN_ANOMALY,BSTAR,MEAN_MOTION_DOT,MEAN_MOTION_DDOT,TLE_LINE0,TLE_LINE1,TLE_LINE2,SEMIMAJOR_AXIS,PERIOD,APOGEE,PERIGEE,DECAYED
53156.0,STARLINK-4087,PAYLOAD,2024-01-06 11:42:01,15.0884137,0.0001259,53.2176,124.8181,79.0063,281.1071,-3.5121e-05,-8.47e-06,0.0,0 STARLINK-4087,1 53156U 22083AA  24006.48751517 -.00000847  00000-0 -35121-4 0  9992,2 53156  53.2176 124.8181 0001259  79.0063 281.1071 15.08841370 81616,6917.876,95.437,540.612,538.87,0.0
53156.0,STARLINK-4087,PAYLOAD,2024-01-06 13:17:24,15.08816042,0.000139,53.2175,124.5208,83.008,277.107,0.00032738,4.923e-05,0.0,0 STARLINK-4087,1 53156U 22083AA  24006.55375703  .00004923  00000-0  32738-3 0  9996,2 53156  53.2175 124.5208 0001390  83.0080 277.1070 15.08816042 82255,6917.954,95.439,540.78,538.857,0.0
53156.0,STARLINK-4087,PAYLOAD,2024-01-07 11:32:48,15.08836273,0.0001377,53.217,120.3596,74.1726,285.9418,4.7579e-05,4.69e-06,0.0,0 STARLINK-4087,1 53156U 22083AA  24007.48111747  .00000469  00000-0  47579-4 0  9996,2 53156  53.2170 120.3596 0001377  74.1726 285.9418 15.08836273 82393,6917.892,95.438,540.709,538.804,0.0
53156.0,STARLINK-4087,PAYLOAD,2024-01-07 14:43:34,15.0883856,0.000141,53.2172,119.765,70.8336,289.2808,6.6878e-05,7.77e-06,0.0,0 STARLINK-4087,1 53156U 22083AA  24007.61359613  .00000777  00000-0  66878-4 0  9992,2 53156  53.2172 119.7650 0001410  70.8336 289.2808 15.08838560 81789,6917.885,95.438,540.725,538.774,0.0
53156.0,STARLINK-4087,PAYLOAD,2024-01-07 16:18:57,15.0884085,0.0001395,53.2173,119.4665,81.1153,278.9997,8.1581e-05,1.011e-05,0.0,0 STARLINK-4087,1 53156U 22083AA  24007.67983378  .00001011  00000-0  81581-4 0  9999,2 53156  53.2173 119.4665 0001395  81.1153 278.9997 15.08840850 81797,6917.878,95.438,540.708,538.778,0.0
53156.0,STARLINK-4087,PAYLOAD,2024-01-08 14:34:21,15.08840814,0.0001358,53.2174,115.302,95.0902,265.0245,0.00010175,1.332e-05,0.0,0 STARLINK-4087,1 53156U 22083AA  24008.60719391  .00001332  00000-0  10175-3 0  9991,2 53156  53.2174 115.3020 0001358  95.0902 265.0245 15.08840814 81932,6917.878,95.438,540.682,538.803,0.0
53156.0,STARLINK-4087,PAYLOAD,2024-01-09 14:25:07,15.08856794,0.0001361,53.2169,110.8434,88.4139,271.7009,0.00014305,1.99e-05,0.0,0 STARLINK-4087,1 53156U 22083AA  24009.60078238  .00001990  00000-0  14305-3 0  9999,2 53156  53.2169 110.8434 0001361  88.4139 271.7009 15.08856794 82080,6917.829,95.436,540.636,538.753,0.0
53156.0,STARLINK-4087,PAYLOAD,2024-01-10 11:05:09,15.08840179,0.0001173,53.2162,106.9797,95.448,264.6646,-4.5692e-06,-3.61e-06,0.0,0 STARLINK-4087,1 53156U 22083AA  24010.46191520 -.00000361  00000-0 -45692-5 0  9993,2 53156  53.2162 106.9797 0001173  95.4480 264.6646 15.08840179 82841,6917.88,95.438,540.556,538.933,0.0
53156.0,STARLINK-4087,PAYLOAD,2024-01-10 15:51:18,15.08851722,0.000146,53.2178,106.0824,89.5147,270.6012,6.3825e-05,7.28e-06,0.0,0 STARLINK-4087,1 53156U 22083AA  24010.66062589  .00000728  00000-0  63825-4 0  9999,2 53156  53.2178 106.0824 0001460  89.5147 270.6012 15.08851722 82876,6917.845,95.437,540.72,538.7,0.0
53156.0,STARLINK-4087,PAYLOAD,2024-01-11 12:31:19,15.08850117,0.0001579,53.2175,102.2216,79.9102,280.2068,-4.6984e-05,-1.036e-05,0.0,0 STARLINK-4087,1 53156U 22083AA  24011.52175011 -.00001036  00000-0 -46984-4 0  9992,2 53156  53.2175 102.2216 0001579  79.9102 280.2068 15.08850117 82371,6917.849,95.437,540.807,538.622,0.0
53156.0,STARLINK-4087,PAYLOAD,2024-01-11 15:42:05,15.08854272,0.0001695,53.2172,101.6243,115.0248,245.092,-4.6798e-05,-1.033e-05,0.0,0 STARLINK-4087,1 53156U 22083AA  24011.65422472 -.00001033  00000-0 -46798-4 0  9992,2 53156  53.2172 101.6243 0001695 115.0248 245.0920 15.08854272 83028,6917.837,95.437,540.874,538.529,0.0
53156.0,STARLINK-4087,PAYLOAD,2024-01-12 12:22:06,15.08831883,0.0001259,53.2185,97.759,110.3668,249.7459,8.322e-05,1.037e-05,0.0,0 STARLINK-4087,1 53156U 22083AA  24012.51535794  .00001037  00000-0  83220-4 0  9993,2 53156  53.2185  97.7590 0001259 110.3668 249.7459 15.08831883 83157,6917.905,95.438,540.641,538.899,0.0
53156.0,STARLINK-4087,PAYLOAD,2024-01-12 15:32:53,15.0883905,0.0001556,53.2172,97.161,109.4598,250.6562,-3.0176e-05,-7.68e-06,0.0,0 STARLINK-4087,1 53156U 22083AA  24012.64783731 -.00000768  00000-0 -30176-4 0  9997,2 53156  53.2172  97.1610 0001556 109.4598 250.6562 15.08839050 82543,6917.883,95.438,540.825,538.672,0.0
53156.0,STARLINK-4087,PAYLOAD,2024-01-13 10:37:30,15.08840648,0.0001463,53.218,93.5938,101.2743,258.8413,7.6227e-07,-2.76e-06,0.0,0 STARLINK-4087,1 53156U 22083AA  24013.44271880 -.00000276  00000-0  76227-6 0  9995,2 53156  53.2180  93.5938 0001463 101.2743 258.8413 15.08840648 82667,6917.878,95.438,540.755,538.731,0.0
53156.0,STARLINK-4087,PAYLOAD,2024-01-13 15:23:39,15.08846049,0.0001657,53.218,92.6998,115.2845,244.8319,3.8876e-05,3.31e-06,0.0,0 STARLINK-4087,1 53156U 22083AA  24013.64143372  .00000331  00000-0  38876-4 0  9998,2 53156  53.2180  92.6998 0001657 115.2845 244.8319 15.08846049 83321,6917.862,95.437,540.873,538.581,0.0
53156.0,STARLINK-4087,PAYLOAD,2024-01-14 10:28:18,15.08816389,0.00015,53.2181,89.1335,106.699,253.4167,-0.00013515,-2.437e-05,0.0,0 STARLINK-4087,1 53156U 22083AA  24014.43632865 -.00002437  00000-0 -13515-3 0  9999,2 53156  53.2181  89.1335 0001500 106.6990 253.4167 15.08816389 83444,6917.953,95.439,540.855,538.78,0.0
53156.0,STARLINK-4087,PAYLOAD,2024-01-15 11:54:29,15.08824688,0.0001206,53.2175,84.3792,105.2272,254.8853,-0.00019747,-3.428e-05,0.0,0 STARLINK-4087,1 53156U 22083AA  24015.49617749 -.00003428  00000-0 -19747-3 0  9994,2 53156  53.2175  84.3792 0001206 105.2272 254.8853 15.08824688 83608,6917.927,95.439,540.626,538.958,0.0
53156.0,STARLINK-4087,PAYLOAD,2024-01-16 03:48:19,15.08847352,0.0001402,53.2182,81.407,85.5713,274.544,-0.00019116,-3.33e-05,0.0,0 STARLINK-4087,1 53156U 22083AA  24016.15856323 -.00003330  00000-0 -19116-3 0  9993,2 53156  53.2182  81.4070 0001402  85.5713 274.5440 15.08847352 83706,6917.858,95.437,540.693,538.753,0.0
53156.0,STARLINK-4087,PAYLOAD,2024-01-16 11:45:14,15.08845987,9.23e-05,53.2173,79.9171,86.7245,273.3852,0.00021152,3.081e-05,0.0,0 STARLINK-4087,1 53156U 22083AA  24016.48974786  .00003081  00000-0  21152-3 0  9997,2 53156  53.2173  79.9171 0000923  86.7245 273.3852 15.08845987 83751,6917.862,95.437,540.366,539.089,0.0
53156.0,STARLINK-4087,PAYLOAD,2024-01-17 10:00:39,15.08833002,0.0001131,53.2187,75.7561,95.5212,264.591,0.00023924,3.521e-05,0.0,0 STARLINK-4087,1 53156U 22083AA  24017.41712663  .00003521  00000-0  23924-3 0  9993,2 53156  53.2187  75.7561 0001131  95.5212 264.5910 15.08833002 83894,6917.902,95.438,540.549,538.984,0.0
53156.0,STARLINK-4087,PAYLOAD,2024-01-18 13:02:12,15.08848302,0.0001933,53.2183,70.6973,119.0559,241.0627,-2.2703e-05,-6.5e-06,0.0,0 STARLINK-4087,1 53156U 22083AA  24018.54320522 -.00000650  00000-0 -22703-4 0  9994,2 53156  53.2183  70.6973 0001933 119.0559 241.0627 15.08848302 83431,6917.855,95.437,541.057,538.383,0.0
53156.0,STARLINK-4087,PAYLOAD,2024-01-19 03:20:41,15.08842134,0.00017,53.2189,68.0164,123.5127,236.6028,-3.8818e-05,-9.06e-06,0.0,0 STARLINK-4087,1 53156U 22083AA  24019.13936764 -.00000906  00000-0 -38818-4 0  9999,2 53156  53.2189  68.0164 0001700 123.5127 236.6028 15.08842134 84155,6917.874,95.437,540.915,538.563,0.0
53156.0,STARLINK-4087,PAYLOAD,2024-01-19 09:42:13,15.08841929,0.0001766,53.218,66.8369,89.6613,270.4581,3.1903e-05,2.2e-06,0.0,0 STARLINK-4087,1 53156U 22083AA  24019.40432792  .00000220  00000-0  31903-4 0  9996,2 53156  53.2180  66.8369 0001766  89.6613 270.4581 15.08841929 83568,6917.874,95.437,540.961,538.518,0.0
53156.0,STARLINK-4087,PAYLOAD,2024-01-20 09:33:01,15.08837358,0.0001805,53.2176,62.3767,104.0999,256.0194,6.3798e-05,7.27e-06,0.0,0 STARLINK-4087,1 53156U 22083AA  24020.39792957  .00000727  00000-0  63798-4 0  9997,2 53156  53.2176  62.3767 0001805 104.0999 256.0194 15.08837358 84347,6917.888,95.438,541.002,538.505,0.0
53156.0,STARLINK-4087,PAYLOAD,2024-01-21 06:13:02,15.0883672,0.000164,53.218,58.5139,96.1366,263.9813,6.0034e-05,6.67e-06,0.0,0 STARLINK-4087,1 53156U 22083AA  24021.25905307  .00000667  00000-0  60034-4 0  9991,2 53156  53.2180  58.5139 0001640  96.1366 263.9813 15.08836720 83849,6917.89,95.438,540.89,538.621,0.0
53156.0,STARLINK-4087,PAYLOAD,2024-01-21 07:48:25,15.08838351,0.0001765,53.2178,58.2154,96.0423,264.0771,6.0555e-05,6.76e-06,0.0,0 STARLINK-4087,1 53156U 22083AA  24021.32529233  .00000676  00000-0  60555-4 0  9997,2 53156  53.2178  58.2154 0001765  96.0423 264.0771 15.08838351 83859,6917.885,95.438,540.971,538.529,0.0
53156.0,STARLINK-4087,PAYLOAD,2024-01-22 06:03:49,15.08835422,0.0001796,53.2188,54.0514,111.5538,248.5646,4.8383e-05,4.82e-06,0.0,0 STARLINK-4087,1 53156U 22083AA  24022.25265597  .00000482  00000-0  48383-4 0  9990,2 53156  53.2188  54.0514 0001796 111.5538 248.5646 15.08835422 83997,6917.894,95.438,541.002,538.517,0.0
53156.0,STARLINK-4087,PAYLOAD,2024-01-22 09:14:36,15.08825114,0.0001899,53.2189,53.4573,112.4365,247.6829,0.00020375,2.955e-05,0.0,0 STARLINK-4087,1 53156U 22083AA  24022.38513954  .00002955  00000-0  20375-3 0  9994,2 53156  53.2189  53.4573 0001899 112.4365 247.6829 15.08825114 84641,6917.926,95.438,541.105,538.477,0.0
53156.0,STARLINK-4087,PAYLOAD,2024-01-23 05:54:36,15.08839289,0.0001788,53.2188,49.5909,105.6929,254.426,4.8713e-05,4.87e-06,0.0,0 STARLINK-4087,1 53156U 22083AA  24023.24625628  .00000487  00000-0  48713-4 0  9997,2 53156  53.2188  49.5909 0001788 105.6929 254.4260 15.08839289 84144,6917.883,95.438,540.984,538.511,0.0
53156.0,STARLINK-4087,PAYLOAD,2024-01-23 09:05:22,15.0884381,0.0001897,53.2187,48.9912,103.2065,256.9139,4.4253e-05,4.16e-06,0.0,0 STARLINK-4087,1 53156U 22083AA  24023.37873354  .00000416  00000-0  44253-4 0  9999,2 53156  53.2187  48.9912 0001897 103.2065 256.9139 15.08843810 84794,6917.869,95.437,541.046,538.421,0.0
